NORAD_CAT_ID,OBJECT_NAME,OBJECT_TYPE,EPOCH,MEAN_MOTION,ECCENTRICITY,INCLINATION,RA_OF_ASC_NODE,ARG_OF_PERICENTER,MEAN_ANOMALY,BSTAR,MEAN_MOTION_DOT,MEAN_MOTION_DDOT,TLE_LINE0,TLE_LINE1,TLE_LINE2,SEMIMAJOR_AXIS,PERIOD,APOGEE,PERIGEE,DECAYED
56461.0,STARLINK-6037,PAYLOAD,2024-04-14 22:40:20,14.98336897,0.000259,69.9993,93.4777,253.7758,106.3116,3.9821e-05,3.82e-06,0.0,0 STARLINK-6037,1 56461U 23064P   24105.94468605  .00000382  00000-0  39821-4 0  9991,2 56461  69.9993  93.4777 0002590 253.7758 106.3116 14.98336897 51337,6950.172,96.107,573.837,570.236,0.0
56461.0,STARLINK-6037,PAYLOAD,2024-04-15 05:04:53,14.98335289,0.0002512,69.9994,92.8041,252.5729,107.5155,2.4921e-05,2.04e-06,0.0,0 STARLINK-6037,1 56461U 23064P   24106.21172635  .00000204  00000-0  24921-4 0  9995,2 56461  69.9994  92.8041 0002512 252.5729 107.5155 14.98335289 51738,6950.177,96.107,573.787,570.296,0.0
56461.0,STARLINK-6037,PAYLOAD,2024-04-15 09:53:17,14.98334124,0.0002627,69.9993,92.2994,258.0461,102.0403,3.7175e-06,-4.9e-07,0.0,0 STARLINK-6037,1 56461U 23064P   24106.41200723 -.00000049  00000-0  37175-5 0  9991,2 56461  69.9993  92.2994 0002627 258.0461 102.0403 14.98334124 51406,6950.18,96.107,573.871,570.219,0.0
56461.0,STARLINK-6037,PAYLOAD,2024-04-16 05:06:52,14.98354018,0.0002457,70.0003,90.2792,241.7912,118.2999,0.0001825,2.087e-05,0.0,0 STARLINK-6037,1 56461U 23064P   24107.21310578  .00002087  00000-0  18250-3 0  9994,2 56461  70.0003  90.2792 0002457 241.7912 118.2999 14.98354018 51881,6950.119,96.105,573.691,570.276,0.0
56461.0,STARLINK-6037,PAYLOAD,2024-04-16 08:19:07,14.98366913,0.0003012,69.9987,89.9419,263.8747,96.2069,0.00027211,3.158e-05,0.0,0 STARLINK-6037,1 56461U 23064P   24107.34661269  .00003158  00000-0  27211-3 0  9991,2 56461  69.9987  89.9419 0003012 263.8747  96.2069 14.98366913 51902,6950.079,96.105,574.037,569.85,0.0
56461.0,STARLINK-6037,PAYLOAD,2024-04-17 05:08:54,14.98330906,0.0003205,69.9987,87.7535,270.1279,89.9513,-4.4233e-05,-6.21e-06,0.0,0 STARLINK-6037,1 56461U 23064P   24108.21451774 -.00000621  00000-0 -44233-4 0  9994,2 56461  69.9987  87.7535 0003205 270.1279  89.9513 14.98330906 52033,6950.19,96.107,574.283,569.828,0.0
56461.0,STARLINK-6037,PAYLOAD,2024-04-17 08:21:10,14.98330567,0.0003053,69.9989,87.417,266.3258,93.7552,-4.2029e-05,-5.94e-06,0.0,0 STARLINK-6037,1 56461U 23064P   24108.34803749 -.00000594  00000-0 -42029-4 0  9991,2 56461  69.9989  87.4170 0003053 266.3258  93.7552 14.98330567 51692,6950.191,96.107,574.178,569.934,0.0
56461.0,STARLINK-6037,PAYLOAD,2024-04-18 01:58:40,14.98315588,0.0002995,69.9991,85.5651,264.3966,95.6852,-0.00013278,-1.676e-05,0.0,0 STARLINK-6037,1 56461U 23064P   24109.08241217 -.00001676  00000-0 -13278-3 0  9994,2 56461  69.9991  85.5651 0002995 264.3966  95.6852 14.98315588 52169,6950.237,96.108,574.184,570.021,0.0
56461.0,STARLINK-6037,PAYLOAD,2024-04-18 08:23:12,14.98334975,0.0002981,69.9991,84.8922,261.3469,98.7353,-0.00034521,-4.21e-05,0.0,0 STARLINK-6037,1 56461U 23064P   24109.34944649 -.00004210  00000-0 -34521-3 0  9993,2 56461  69.9991  84.8922 0002981 261.3469  98.7353 14.98334975 52208,6950.178,96.107,574.114,569.971,0.0
56461.0,STARLINK-6037,PAYLOAD,2024-04-18 22:48:24,14.98322723,0.0002869,69.9992,83.3768,265.6928,94.3903,7.2862e-05,7.76e-06,0.0,0 STARLINK-6037,1 56461U 23064P   24109.95028327  .00000776  00000-0  72862-4 0  9998,2 56461  69.9992  83.3768 0002869 265.6928  94.3903 14.98322723 51933,6950.215,96.107,574.074,570.086,0.0
56461.0,STARLINK-6037,PAYLOAD,2024-04-19 08:25:13,14.98321804,0.0002914,69.9994,82.3675,265.1187,94.964,5.3882e-05,5.5e-06,0.0,0 STARLINK-6037,1 56461U 23064P   24110.35084690  .00000550  00000-0  53882-4 0  9990,2 56461  69.9994  82.3675 0002914 265.1187  94.9640 14.98321804 52354,6950.218,96.108,574.109,570.058,0.0
56461.0,STARLINK-6037,PAYLOAD,2024-04-19 21:14:17,14.98329397,0.0003328,69.9984,81.021,266.3464,93.7315,0.0001607,1.825e-05,0.0,0 STARLINK-6037,1 56461U 23064P   24110.88492069  .00001825  00000-0  16070-3 0  9994,2 56461  69.9984  81.0210 0003328 266.3464  93.7315 14.98329397 52435,6950.195,96.107,574.373,569.747,0.0
56461.0,STARLINK-6037,PAYLOAD,2024-04-19 22:50:25,14.98330321,0.0003325,69.9984,80.8528,266.346,93.7319,0.00016653,1.895e-05,0.0,0 STARLINK-6037,1 56461U 23064P   24110.95167992  .00001895  00000-0  16653-3 0  9990,2 56461  69.9984  80.8528 0003325 266.3460  93.7319 14.98330321 52081,6950.192,96.107,574.368,569.746,0.0
56461.0,STARLINK-6037,PAYLOAD,2024-04-20 05:14:56,14.9833696,0.0003128,69.9992,80.1789,269.6503,90.4298,0.00024728,2.859e-05,0.0,0 STARLINK-6037,1 56461U 23064P   24111.21871351  .00002859  00000-0  24728-3 0  9994,2 56461  69.9992  80.1789 0003128 269.6503  90.4298 14.98336960 52486,6950.171,96.107,574.21,569.862,0.0
56461.0,STARLINK-6037,PAYLOAD,2024-04-20 08:27:11,14.9834949,0.0002943,69.9994,79.8423,265.0271,95.0552,0.00038459,4.501e-05,0.0,0 STARLINK-6037,1 56461U 23064P   24111.35222013  .00004501  00000-0  38459-3 0  9996,2 56461  69.9994  79.8423 0002943 265.0271  95.0552 14.98349490 52503,6950.133,96.106,574.043,569.952,0.0
56461.0,STARLINK-6037,PAYLOAD,2024-04-21 02:04:47,14.98264287,0.0002995,69.9993,77.9903,263.9272,96.1546,-0.00061911,-7.46e-05,0.0,0 STARLINK-6037,1 56461U 23064P   24112.08666603 -.00007460  00000-0 -61911-3 0  9992,2 56461  69.9993  77.9903 0002995 263.9272  96.1546 14.98264287 52616,6950.396,96.111,574.343,570.179,0.0
56461.0,STARLINK-6037,PAYLOAD,2024-04-21 13:17:40,14.98331329,0.0002309,70.0003,76.8123,293.2569,66.8346,5.4767e-05,5.61e-06,0.0,0 STARLINK-6037,1 56461U 23064P   24112.55394010  .00000561  00000-0  54767-4 0  9999,2 56461  70.0003  76.8123 0002309 293.2569  66.8346 14.98331329 52329,6950.189,96.107,573.659,570.449,0.0
56461.0,STARLINK-6037,PAYLOAD,2024-04-21 19:42:11,14.98341997,0.0003069,70.0004,76.1372,254.8363,105.2457,5.4041e-05,5.52e-06,0.0,0 STARLINK-6037,1 56461U 23064P   24112.82096738  .00000552  00000-0  54041-4 0  9990,2 56461  70.0004  76.1372 0003069 254.8363 105.2457 14.98341997 52725,6950.156,96.106,574.154,569.888,0.0
56461.0,STARLINK-6037,PAYLOAD,2024-04-21 22:54:27,14.98350157,0.0003237,69.9991,75.8006,264.02,96.059,4.4629e-05,4.4e-06,0.0,0 STARLINK-6037,1 56461U 23064P   24112.95448232  .00000440  00000-0  44629-4 0  9991,2 56461  69.9991  75.8006 0003237 264.0200  96.0590 14.98350157 52382,6950.131,96.106,574.245,569.746,0.0
56461.0,STARLINK-6037,PAYLOAD,2024-04-22 03:42:51,14.98351774,0.0003216,69.9989,75.2969,268.0288,92.0502,0.00014814,1.676e-05,0.0,0 STARLINK-6037,1 56461U 23064P   24113.15475756  .00001676  00000-0  14814-3 0  9999,2 56461  69.9989  75.2969 0003216 268.0288  92.0502 14.98351774 52776,6950.126,96.106,574.226,569.755,0.0
56461.0,STARLINK-6037,PAYLOAD,2024-04-22 06:55:06,14.98363469,0.0002852,69.9996,74.9607,263.8423,96.2412,0.00017874,2.042e-05,0.0,0 STARLINK-6037,1 56461U 23064P   24113.28826741  .00002042  00000-0  17874-3 0  9994,2 56461  69.9996  74.9607 0002852 263.8423  96.2412 14.98363469 52790,6950.089,96.105,573.937,569.972,0.0
56461.0,STARLINK-6037,PAYLOAD,2024-04-22 22:56:29,14.98298467,0.0002669,70.0009,73.2786,253.942,106.1445,0.00067052,7.91e-05,0.0,0 STARLINK-6037,1 56461U 23064P   24113.95589265  .00007910  00000-0  67052-3 0  9997,2 56461  70.0009  73.2786 0002669 253.9420 106.1445 14.98298467 52535,6950.29,96.109,574.01,570.3,0.0
56461.0,STARLINK-6037,PAYLOAD,2024-04-23 03:44:53,14.98299202,0.0003065,69.9996,72.7735,266.6548,93.4261,0.0006392,7.536e-05,0.0,0 STARLINK-6037,1 56461U 23064P   24114.15617684  .00007536  00000-0  63920-3 0  9991,2 56461  69.9996  72.7735 0003065 266.6548  93.4261 14.98299202 52923,6950.288,96.109,574.283,570.023,0.0
56461.0,STARLINK-6037,PAYLOAD,2024-04-23 06:57:09,14.98300724,0.0003036,69.9999,72.4373,264.8709,95.2103,0.00062304,7.343e-05,0.0,0 STARLINK-6037,1 56461U 23064P   24114.28969817  .00007343  00000-0  62304-3 0  9994,2 56461  69.9999  72.4373 0003036 264.8709  95.2103 14.98300724 52587,6950.283,96.109,574.259,570.038,0.0
56461.0,STARLINK-6037,PAYLOAD,2024-04-23 21:22:21,14.98340737,0.000297,70.0009,70.9231,269.8931,90.1888,-6.7714e-05,-9.01e-06,0.0,0 STARLINK-6037,1 56461U 23064P   24114.89052879 -.00000901  00000-0 -67714-4 0  9998,2 56461  70.0009  70.9231 0002970 269.8931  90.1888 14.98340737 53039,6950.16,96.106,574.089,569.96,0.0
56461.0,STARLINK-6037,PAYLOAD,2024-04-24 06:59:09,14.98353386,0.0003278,70.0011,69.9105,281.3378,78.7413,-6.4456e-05,-8.63e-06,0.0,0 STARLINK-6037,1 56461U 23064P   24115.29107645 -.00000863  00000-0 -64456-4 0  9992,2 56461  70.0011  69.9105 0003278 281.3378  78.7413 14.98353386 53092,6950.121,96.105,574.264,569.707,0.0
56461.0,STARLINK-6037,PAYLOAD,2024-04-24 21:24:22,14.98325176,0.0001334,70.0035,68.3975,266.0276,94.073,0.00019702,2.258e-05,0.0,0 STARLINK-6037,1 56461U 23064P   24115.89192561  .00002258  00000-0  19702-3 0  9990,2 56461  70.0035  68.3975 0001334 266.0276  94.0730 14.98325176 53183,6950.208,96.107,573.0,571.146,0.0
56461.0,STARLINK-6037,PAYLOAD,2024-04-25 07:01:10,14.98330698,0.0002536,70.0011,67.3869,267.6389,92.448,8.4384e-05,9.14e-06,0.0,0 STARLINK-6037,1 56461U 23064P   24116.29248438  .00000914  00000-0  84384-4 0  9996,2 56461  70.0011  67.3869 0002536 267.6389  92.4480 14.98330698 52880,6950.191,96.107,573.818,570.293,0.0
56461.0,STARLINK-6037,PAYLOAD,2024-04-25 21:26:23,14.98332943,0.0002685,70.0013,65.8729,280.1903,79.8953,-4.0944e-05,-5.81e-06,0.0,0 STARLINK-6037,1 56461U 23064P   24116.89332727 -.00000581  00000-0 -40944-4 0  9993,2 56461  70.0013  65.8729 0002685 280.1903  79.8953 14.98332943 53337,6950.184,96.107,573.915,570.183,0.0
56461.0,STARLINK-6037,PAYLOAD,2024-04-25 23:02:31,14.98333236,0.0002833,70.0014,65.7045,281.065,79.019,-3.657e-05,-5.29e-06,0.0,0 STARLINK-6037,1 56461U 23064P   24116.96008675 -.00000529  00000-0 -36570-4 0  9995,2 56461  70.0014  65.7045 0002833 281.0650  79.0190 14.98333236 52983,6950.183,96.107,574.017,570.079,0.0
